Zip,CC,County,City,State
32003,12019,Clay County,FLEMING ISLAND,FL
32004,12109,St. Johns County,PONTE VEDRA BEACH,FL
32006,12019,Clay County,FLEMING ISLAND,FL
32007,12107,Putnam County,BOSTWICK,FL
32008,12121,Suwannee County,BRANFORD,FL
32008,12067,Lafayette County,BRANFORD,FL
32008,12029,Dixie County,BRANFORD,FL
32008,12041,Gilchrist County,BRANFORD,FL
32009,12089,Nassau County,BRYCEVILLE,FL
32011,12089,Nassau County,CALLAHAN,FL
32013,12067,Lafayette County,DAY,FL
32024,12121,Suwannee County,LAKE CITY,FL
32024,12023,Columbia County,LAKE CITY,FL
32025,12023,Columbia County,LAKE CITY,FL
32033,12109,St. Johns County,ELKTON,FL
32034,12089,Nassau County,FERNANDINA BEACH,FL
32035,12089,Nassau County,FERNANDINA BEACH,FL
32038,12023,Columbia County,FORT WHITE,FL
32038,12121,Suwannee County,FORT WHITE,FL
32040,12003,Baker County,GLEN SAINT MARY,FL
32041,12089,Nassau County,YULEE,FL
32042,12007,Bradford County,GRAHAM,FL
32043,12107,Putnam County,GREEN COVE SPRINGS,FL
32043,12019,Clay County,GREEN COVE SPRINGS,FL
32044,12001,Alachua County,HAMPTON,FL
32044,12007,Bradford County,HAMPTON,FL
32046,12089,Nassau County,HILLIARD,FL
32050,12019,Clay County,MIDDLEBURG,FL
32052,12047,Hamilton County,JASPER,FL
32053,12047,Hamilton County,JENNINGS,FL
32054,12125,Union County,LAKE BUTLER,FL
32054,12007,Bradford County,LAKE BUTLER,FL
32055,12023,Columbia County,LAKE CITY,FL
32055,12121,Suwannee County,LAKE CITY,FL
32056,12023,Columbia County,LAKE CITY,FL
32058,12007,Bradford County,LAWTEY,FL
32058,12125,Union County,LAWTEY,FL
32058,12019,Clay County,LAWTEY,FL
32059,12079,Madison County,LEE,FL
32060,12121,Suwannee County,LIVE OAK,FL
32061,12023,Columbia County,LULU,FL
32062,12121,Suwannee County,MC ALPIN,FL
32063,12003,Baker County,MACCLENNY,FL
32064,12121,Suwannee County,LIVE OAK,FL
32065,12019,Clay County,ORANGE PARK,FL
32066,12067,Lafayette County,MAYO,FL
32066,12079,Madison County,MAYO,FL
32067,12019,Clay County,ORANGE PARK,FL
32068,12019,Clay County,MIDDLEBURG,FL
32071,12121,Suwannee County,O BRIEN,FL
32073,12019,Clay County,ORANGE PARK,FL
32079,12019,Clay County,PENNEY FARMS,FL
32080,12109,St. Johns County,SAINT AUGUSTINE,FL
32080,12035,Flagler County,SAINT AUGUSTINE,FL
32081,12109,St. Johns County,PONTE VEDRA,FL
32081,12031,Duval County,PONTE VEDRA,FL
32082,12031,Duval County,PONTE VEDRA BEACH,FL
32082,12109,St. Johns County,PONTE VEDRA BEACH,FL
32083,12125,Union County,RAIFORD,FL
32083,12007,Bradford County,RAIFORD,FL
32084,12109,St. Johns County,SAINT AUGUSTINE,FL
32085,12109,St. Johns County,SAINT AUGUSTINE,FL
32086,12035,Flagler County,SAINT AUGUSTINE,FL
32086,12109,St. Johns County,SAINT AUGUSTINE,FL
32087,12003,Baker County,SANDERSON,FL
32091,12019,Clay County,STARKE,FL
32091,12007,Bradford County,STARKE,FL
32092,12109,St. Johns County,SAINT AUGUSTINE,FL
32094,12023,Columbia County,WELLBORN,FL
32094,12121,Suwannee County,WELLBORN,FL
32095,12109,St. Johns County,SAINT AUGUSTINE,FL
32096,12047,Hamilton County,WHITE SPRINGS,FL
32096,12023,Columbia County,WHITE SPRINGS,FL
32096,12121,Suwannee County,WHITE SPRINGS,FL
32097,12089,Nassau County,YULEE,FL
32099,12031,Duval County,JACKSONVILLE,FL
32102,12069,Lake County,ASTOR,FL
32102,12127,Volusia County,ASTOR,FL
32105,12127,Volusia County,BARBERVILLE,FL
32110,12035,Flagler County,BUNNELL,FL
32111,12083,Marion County,CANDLER,FL
32112,12127,Volusia County,CRESCENT CITY,FL
32112,12107,Putnam County,CRESCENT CITY,FL
32113,12083,Marion County,CITRA,FL
32114,12127,Volusia County,DAYTONA BEACH,FL
32115,12127,Volusia County,DAYTONA BEACH,FL
32117,12127,Volusia County,DAYTONA BEACH,FL
32118,12127,Volusia County,DAYTONA BEACH,FL
32119,12127,Volusia County,DAYTONA BEACH,FL
32120,12127,Volusia County,DAYTONA BEACH,FL
32121,12127,Volusia County,DAYTONA BEACH,FL
32122,12127,Volusia County,DAYTONA BEACH,FL
32124,12127,Volusia County,DAYTONA BEACH,FL
32125,12127,Volusia County,DAYTONA BEACH,FL
32126,12127,Volusia County,DAYTONA BEACH,FL
32127,12127,Volusia County,PORT ORANGE,FL
32128,12127,Volusia County,PORT ORANGE,FL
32129,12127,Volusia County,PORT ORANGE,FL
32130,12127,Volusia County,DE LEON SPRINGS,FL
32131,12107,Putnam County,EAST PALATKA,FL
32131,12109,St. Johns County,EAST PALATKA,FL
32132,12127,Volusia County,EDGEWATER,FL
32133,12083,Marion County,EASTLAKE WEIR,FL
32134,12069,Lake County,FORT MC COY,FL
32134,12083,Marion County,FORT MC COY,FL
32134,12107,Putnam County,FORT MC COY,FL
32135,12035,Flagler County,PALM COAST,FL
32136,12127,Volusia County,FLAGLER BEACH,FL
32136,12035,Flagler County,FLAGLER BEACH,FL
32137,12035,Flagler County,PALM COAST,FL
32138,12107,Putnam County,GRANDIN,FL
32139,12107,Putnam County,GEORGETOWN,FL
32140,12107,Putnam County,FLORAHOME,FL
32140,12019,Clay County,FLORAHOME,FL
32141,12127,Volusia County,EDGEWATER,FL
32143,12035,Flagler County,PALM COAST,FL
32145,12107,Putnam County,HASTINGS,FL
32145,12109,St. Johns County,HASTINGS,FL
32145,12035,Flagler County,HASTINGS,FL
32147,12107,Putnam County,HOLLISTER,FL
32148,12107,Putnam County,INTERLACHEN,FL
32158,12069,Lake County,LADY LAKE,FL
32159,12069,Lake County,LADY LAKE,FL
32159,12119,Sumter County,LADY LAKE,FL
32160,12019,Clay County,LAKE GENEVA,FL
32162,12069,Lake County,THE VILLAGES,FL
32162,12119,Sumter County,THE VILLAGES,FL
32162,12083,Marion County,THE VILLAGES,FL
32163,12119,Sumter County,THE VILLAGES,FL
32163,12069,Lake County,THE VILLAGES,FL
32164,12035,Flagler County,PALM COAST,FL
32168,12127,Volusia County,NEW SMYRNA BEACH,FL
32169,12127,Volusia County,NEW SMYRNA BEACH,FL
32170,12127,Volusia County,NEW SMYRNA BEACH,FL
32173,12127,Volusia County,ORMOND BEACH,FL
32174,12035,Flagler County,ORMOND BEACH,FL
32174,12127,Volusia County,ORMOND BEACH,FL
32175,12127,Volusia County,ORMOND BEACH,FL
32176,12127,Volusia County,ORMOND BEACH,FL
32177,12107,Putnam County,PALATKA,FL
32178,12107,Putnam County,PALATKA,FL
32179,12083,Marion County,OCKLAWAHA,FL
32180,12035,Flagler County,PIERSON,FL
32180,12127,Volusia County,PIERSON,FL
32181,12107,Putnam County,POMONA PARK,FL
32182,12083,Marion County,ORANGE SPRINGS,FL
32183,12083,Marion County,OCKLAWAHA,FL
32185,12107,Putnam County,PUTNAM HALL,FL
32187,12107,Putnam County,SAN MATEO,FL
32189,12107,Putnam County,SATSUMA,FL
32190,12127,Volusia County,SEVILLE,FL
32192,12083,Marion County,SPARR,FL
32193,12107,Putnam County,WELAKA,FL
32195,12069,Lake County,WEIRSDALE,FL
32195,12083,Marion County,WEIRSDALE,FL
32198,12127,Volusia County,DAYTONA BEACH,FL
32202,12031,Duval County,JACKSONVILLE,FL
32203,12031,Duval County,JACKSONVILLE,FL
32204,12031,Duval County,JACKSONVILLE,FL
32205,12031,Duval County,JACKSONVILLE,FL
32206,12031,Duval County,JACKSONVILLE,FL
32207,12031,Duval County,JACKSONVILLE,FL
32208,12031,Duval County,JACKSONVILLE,FL
32209,12031,Duval County,JACKSONVILLE,FL
32210,12031,Duval County,JACKSONVILLE,FL
32211,12031,Duval County,JACKSONVILLE,FL
32212,12031,Duval County,JACKSONVILLE,FL
32214,12031,Duval County,JACKSONVILLE,FL
32216,12031,Duval County,JACKSONVILLE,FL
32217,12031,Duval County,JACKSONVILLE,FL
32218,12031,Duval County,JACKSONVILLE,FL
32219,12031,Duval County,JACKSONVILLE,FL
32220,12031,Duval County,JACKSONVILLE,FL
32221,12031,Duval County,JACKSONVILLE,FL
32222,12031,Duval County,JACKSONVILLE,FL
32223,12031,Duval County,JACKSONVILLE,FL
32224,12031,Duval County,JACKSONVILLE,FL
32224,12109,St. Johns County,JACKSONVILLE,FL
32225,12031,Duval County,JACKSONVILLE,FL
32226,12031,Duval County,JACKSONVILLE,FL
32227,12031,Duval County,JACKSONVILLE,FL
32228,12031,Duval County,JACKSONVILLE,FL
32229,12031,Duval County,JACKSONVILLE,FL
32233,12031,Duval County,ATLANTIC BEACH,FL
32234,12031,Duval County,JACKSONVILLE,FL
32234,12089,Nassau County,JACKSONVILLE,FL
32234,12003,Baker County,JACKSONVILLE,FL
32234,12019,Clay County,JACKSONVILLE,FL
32235,12031,Duval County,JACKSONVILLE,FL
32236,12031,Duval County,JACKSONVILLE,FL
32238,12031,Duval County,JACKSONVILLE,FL
32239,12031,Duval County,JACKSONVILLE,FL
32240,12031,Duval County,JACKSONVILLE BEACH,FL
32241,12031,Duval County,JACKSONVILLE,FL
32244,12031,Duval County,JACKSONVILLE,FL
32245,12031,Duval County,JACKSONVILLE,FL
32246,12031,Duval County,JACKSONVILLE,FL
32247,12031,Duval County,JACKSONVILLE,FL
32250,12031,Duval County,JACKSONVILLE BEACH,FL
32250,12109,St. Johns County,JACKSONVILLE BEACH,FL
32254,12031,Duval County,JACKSONVILLE,FL
32255,12031,Duval County,JACKSONVILLE,FL
32256,12031,Duval County,JACKSONVILLE,FL
32257,12031,Duval County,JACKSONVILLE,FL
32258,12031,Duval County,JACKSONVILLE,FL
32259,12109,St. Johns County,SAINT JOHNS,FL
32259,12031,Duval County,SAINT JOHNS,FL
32260,12109,St. Johns County,JACKSONVILLE,FL
32266,12031,Duval County,NEPTUNE BEACH,FL
32277,12031,Duval County,JACKSONVILLE,FL
32301,12073,Leon County,TALLAHASSEE,FL
32302,12073,Leon County,TALLAHASSEE,FL
32303,12073,Leon County,TALLAHASSEE,FL
32304,12073,Leon County,TALLAHASSEE,FL
32305,12073,Leon County,TALLAHASSEE,FL
32306,12073,Leon County,TALLAHASSEE,FL
32307,12073,Leon County,TALLAHASSEE,FL
32308,12073,Leon County,TALLAHASSEE,FL
32309,12065,Jefferson County,TALLAHASSEE,FL
32309,12073,Leon County,TALLAHASSEE,FL
32310,12073,Leon County,TALLAHASSEE,FL
32311,12073,Leon County,TALLAHASSEE,FL
32312,12073,Leon County,TALLAHASSEE,FL
32313,12073,Leon County,TALLAHASSEE,FL
32314,12073,Leon County,TALLAHASSEE,FL
32315,12073,Leon County,TALLAHASSEE,FL
32316,12073,Leon County,TALLAHASSEE,FL
32317,12073,Leon County,TALLAHASSEE,FL
32318,12073,Leon County,TALLAHASSEE,FL
32320,12037,Franklin County,APALACHICOLA,FL
32321,12077,Liberty County,BRISTOL,FL
32321,12037,Franklin County,BRISTOL,FL
32322,12037,Franklin County,CARRABELLE,FL
32324,12039,Gadsden County,CHATTAHOOCHEE,FL
32326,12129,Wakulla County,CRAWFORDVILLE,FL
32327,12129,Wakulla County,CRAWFORDVILLE,FL
32327,12073,Leon County,CRAWFORDVILLE,FL
32328,12037,Franklin County,EASTPOINT,FL
32328,12077,Liberty County,EASTPOINT,FL
32330,12039,Gadsden County,GREENSBORO,FL
32331,12065,Jefferson County,GREENVILLE,FL
32331,12079,Madison County,GREENVILLE,FL
32331,12123,Taylor County,GREENVILLE,FL
32332,12039,Gadsden County,GRETNA,FL
32333,12039,Gadsden County,HAVANA,FL
32334,12077,Liberty County,HOSFORD,FL
32336,12123,Taylor County,LAMONT,FL
32336,12079,Madison County,LAMONT,FL
32336,12065,Jefferson County,LAMONT,FL
32337,12065,Jefferson County,LLOYD,FL
32340,12079,Madison County,MADISON,FL
32343,12039,Gadsden County,MIDWAY,FL
32344,12065,Jefferson County,MONTICELLO,FL
32344,12073,Leon County,MONTICELLO,FL
32345,12065,Jefferson County,MONTICELLO,FL
32346,12129,Wakulla County,PANACEA,FL
32346,12037,Franklin County,PANACEA,FL
32347,12123,Taylor County,PERRY,FL
32348,12123,Taylor County,PERRY,FL
32350,12079,Madison County,PINETTA,FL
32351,12039,Gadsden County,QUINCY,FL
32351,12077,Liberty County,QUINCY,FL
32352,12039,Gadsden County,QUINCY,FL
32355,12129,Wakulla County,SAINT MARKS,FL
32356,12123,Taylor County,SALEM,FL
32357,12123,Taylor County,SHADY GROVE,FL
32358,12129,Wakulla County,SOPCHOPPY,FL
32358,12037,Franklin County,SOPCHOPPY,FL
32359,12123,Taylor County,STEINHATCHEE,FL
32359,12029,Dixie County,STEINHATCHEE,FL
32360,12077,Liberty County,TELOGIA,FL
32361,12065,Jefferson County,WACISSA,FL
32362,12073,Leon County,WOODVILLE,FL
32399,12073,Leon County,TALLAHASSEE,FL
32401,12005,Bay County,PANAMA CITY,FL
32402,12005,Bay County,PANAMA CITY,FL
32403,12005,Bay County,PANAMA CITY,FL
32404,12005,Bay County,PANAMA CITY,FL
32405,12005,Bay County,PANAMA CITY,FL
32406,12005,Bay County,PANAMA CITY,FL
32407,12005,Bay County,PANAMA CITY BEACH,FL
32408,12005,Bay County,PANAMA CITY,FL
32409,12005,Bay County,PANAMA CITY,FL
32410,12005,Bay County,MEXICO BEACH,FL
32411,12005,Bay County,PANAMA CITY,FL
32413,12005,Bay County,PANAMA CITY BEACH,FL
32417,12005,Bay County,PANAMA CITY,FL
32420,12063,Jackson County,ALFORD,FL
32420,12013,Calhoun County,ALFORD,FL
32420,12133,Washington County,ALFORD,FL
32421,12013,Calhoun County,ALTHA,FL
32422,12131,Walton County,ARGYLE,FL
32423,12063,Jackson County,BASCOM,FL
32424,12013,Calhoun County,BLOUNTSTOWN,FL
32425,12059,Holmes County,BONIFAY,FL
32425,12133,Washington County,BONIFAY,FL
32426,12063,Jackson County,CAMPBELLTON,FL
32427,12133,Washington County,CARYVILLE,FL
32428,12005,Bay County,CHIPLEY,FL
32428,12063,Jackson County,CHIPLEY,FL
32428,12133,Washington County,CHIPLEY,FL
32430,12013,Calhoun County,CLARKSVILLE,FL
32431,12133,Washington County,COTTONDALE,FL
32431,12063,Jackson County,COTTONDALE,FL
32432,12063,Jackson County,CYPRESS,FL
32433,12059,Holmes County,DEFUNIAK SPRINGS,FL
32433,12131,Walton County,DEFUNIAK SPRINGS,FL
32433,12091,Okaloosa County,DEFUNIAK SPRINGS,FL
32435,12131,Walton County,DEFUNIAK SPRINGS,FL
32437,12133,Washington County,EBRO,FL
32437,12005,Bay County,EBRO,FL
32438,12013,Calhoun County,FOUNTAIN,FL
32438,12005,Bay County,FOUNTAIN,FL
32438,12063,Jackson County,FOUNTAIN,FL
32438,12133,Washington County,FOUNTAIN,FL
32439,12131,Walton County,FREEPORT,FL
32440,12059,Holmes County,GRACEVILLE,FL
32440,12063,Jackson County,GRACEVILLE,FL
32442,12013,Calhoun County,GRAND RIDGE,FL
32442,12063,Jackson County,GRAND RIDGE,FL
32443,12063,Jackson County,GREENWOOD,FL
32444,12005,Bay County,LYNN HAVEN,FL
32445,12063,Jackson County,MALONE,FL
32446,12063,Jackson County,MARIANNA,FL
32447,12063,Jackson County,MARIANNA,FL
32448,12013,Calhoun County,MARIANNA,FL
32448,12063,Jackson County,MARIANNA,FL
32449,12013,Calhoun County,WEWAHITCHKA,FL
32455,12059,Holmes County,PONCE DE LEON,FL
32455,12131,Walton County,PONCE DE LEON,FL
32456,12005,Bay County,PORT SAINT JOE,FL
32456,12045,Gulf County,PORT SAINT JOE,FL
32459,12131,Walton County,SANTA ROSA BEACH,FL
32460,12063,Jackson County,SNEADS,FL
32461,12131,Walton County,INLET BEACH,FL
32462,12005,Bay County,VERNON,FL
32462,12131,Walton County,VERNON,FL
32462,12133,Washington County,VERNON,FL
32463,12133,Washington County,WAUSAU,FL
32464,12131,Walton County,WESTVILLE,FL
32464,12059,Holmes County,WESTVILLE,FL
32465,12005,Bay County,WEWAHITCHKA,FL
32465,12013,Calhoun County,WEWAHITCHKA,FL
32465,12045,Gulf County,WEWAHITCHKA,FL
32466,12013,Calhoun County,YOUNGSTOWN,FL
32466,12005,Bay County,YOUNGSTOWN,FL
32466,12133,Washington County,YOUNGSTOWN,FL
32501,12033,Escambia County,PENSACOLA,FL
32502,12033,Escambia County,PENSACOLA,FL
32503,12033,Escambia County,PENSACOLA,FL
32504,12033,Escambia County,PENSACOLA,FL
32505,12033,Escambia County,PENSACOLA,FL
32506,12033,Escambia County,PENSACOLA,FL
32507,12033,Escambia County,PENSACOLA,FL
32508,12033,Escambia County,PENSACOLA,FL
32509,12033,Escambia County,PENSACOLA,FL
32511,12033,Escambia County,PENSACOLA,FL
32512,12033,Escambia County,PENSACOLA,FL
32513,12033,Escambia County,PENSACOLA,FL
32514,12033,Escambia County,PENSACOLA,FL
32516,12033,Escambia County,PENSACOLA,FL
32520,12033,Escambia County,PENSACOLA,FL
32522,12033,Escambia County,PENSACOLA,FL
32523,12033,Escambia County,PENSACOLA,FL
32524,12033,Escambia County,PENSACOLA,FL
32526,12033,Escambia County,PENSACOLA,FL
32530,12113,Santa Rosa County,BAGDAD,FL
32531,12113,Santa Rosa County,BAKER,FL
32531,12091,Okaloosa County,BAKER,FL
32533,12033,Escambia County,CANTONMENT,FL
32534,12033,Escambia County,PENSACOLA,FL
32535,12033,Escambia County,CENTURY,FL
32536,12091,Okaloosa County,CRESTVIEW,FL
32538,12131,Walton County,PAXTON,FL
32539,12091,Okaloosa County,CRESTVIEW,FL
32539,12131,Walton County,CRESTVIEW,FL
32540,12091,Okaloosa County,DESTIN,FL
32541,12091,Okaloosa County,DESTIN,FL
32542,12091,Okaloosa County,EGLIN AFB,FL
32544,12091,Okaloosa County,HURLBURT FIELD,FL
32547,12091,Okaloosa County,FORT WALTON BEACH,FL
32548,12091,Okaloosa County,FORT WALTON BEACH,FL
32549,12091,Okaloosa County,FORT WALTON BEACH,FL
32550,12131,Walton County,MIRAMAR BEACH,FL
32559,12033,Escambia County,PENSACOLA,FL
32560,12033,Escambia County,GONZALEZ,FL
32561,12113,Santa Rosa County,GULF BREEZE,FL
32561,12033,Escambia County,GULF BREEZE,FL
32562,12113,Santa Rosa County,GULF BREEZE,FL
32563,12113,Santa Rosa County,GULF BREEZE,FL
32564,12091,Okaloosa County,HOLT,FL
32564,12113,Santa Rosa County,HOLT,FL
32565,12113,Santa Rosa County,JAY,FL
32566,12113,Santa Rosa County,NAVARRE,FL
32567,12091,Okaloosa County,LAUREL HILL,FL
32567,12131,Walton County,LAUREL HILL,FL
32568,12033,Escambia County,MC DAVID,FL
32569,12113,Santa Rosa County,MARY ESTHER,FL
32569,12091,Okaloosa County,MARY ESTHER,FL
32570,12113,Santa Rosa County,MILTON,FL
32571,12113,Santa Rosa County,MILTON,FL
32572,12113,Santa Rosa County,MILTON,FL
32577,12033,Escambia County,MOLINO,FL
32578,12091,Okaloosa County,NICEVILLE,FL
32578,12131,Walton County,NICEVILLE,FL
32579,12091,Okaloosa County,SHALIMAR,FL
32580,12091,Okaloosa County,VALPARAISO,FL
32583,12113,Santa Rosa County,MILTON,FL
32588,12091,Okaloosa County,NICEVILLE,FL
32591,12033,Escambia County,PENSACOLA,FL
32601,12001,Alachua County,GAINESVILLE,FL
32603,12001,Alachua County,GAINESVILLE,FL
32604,12001,Alachua County,GAINESVILLE,FL
32605,12001,Alachua County,GAINESVILLE,FL
32606,12001,Alachua County,GAINESVILLE,FL
32607,12001,Alachua County,GAINESVILLE,FL
32608,12001,Alachua County,GAINESVILLE,FL
32609,12001,Alachua County,GAINESVILLE,FL
32609,12007,Bradford County,GAINESVILLE,FL
32610,12001,Alachua County,GAINESVILLE,FL
32611,12001,Alachua County,GAINESVILLE,FL
32612,12001,Alachua County,GAINESVILLE,FL
32614,12001,Alachua County,GAINESVILLE,FL
32615,12001,Alachua County,ALACHUA,FL
32616,12001,Alachua County,ALACHUA,FL
32617,12083,Marion County,ANTHONY,FL
32618,12075,Levy County,ARCHER,FL
32618,12001,Alachua County,ARCHER,FL
32619,12041,Gilchrist County,BELL,FL
32621,12075,Levy County,BRONSON,FL
32622,12007,Bradford County,BROOKER,FL
32622,12001,Alachua County,BROOKER,FL
32625,12075,Levy County,CEDAR KEY,FL
32626,12075,Levy County,CHIEFLAND,FL
32627,12001,Alachua County,GAINESVILLE,FL
32628,12029,Dixie County,CROSS CITY,FL
32631,12001,Alachua County,EARLETON,FL
32633,12001,Alachua County,EVINSTON,FL
32634,12083,Marion County,FAIRFIELD,FL
32635,12001,Alachua County,GAINESVILLE,FL
32639,12075,Levy County,GULF HAMMOCK,FL
32640,12107,Putnam County,HAWTHORNE,FL
32640,12001,Alachua County,HAWTHORNE,FL
32641,12001,Alachua County,GAINESVILLE,FL
32643,12001,Alachua County,HIGH SPRINGS,FL
32643,12041,Gilchrist County,HIGH SPRINGS,FL
32643,12023,Columbia County,HIGH SPRINGS,FL
32644,12075,Levy County,CHIEFLAND,FL
32648,12029,Dixie County,HORSESHOE BEACH,FL
32653,12001,Alachua County,GAINESVILLE,FL
32654,12001,Alachua County,ISLAND GROVE,FL
32655,12001,Alachua County,HIGH SPRINGS,FL
32656,12107,Putnam County,KEYSTONE HEIGHTS,FL
32656,12019,Clay County,KEYSTONE HEIGHTS,FL
32656,12007,Bradford County,KEYSTONE HEIGHTS,FL
32658,12001,Alachua County,LA CROSSE,FL
32662,12001,Alachua County,LOCHLOOSA,FL
32663,12083,Marion County,LOWELL,FL
32664,12083,Marion County,MC INTOSH,FL
32666,12019,Clay County,MELROSE,FL
32666,12001,Alachua County,MELROSE,FL
32666,12007,Bradford County,MELROSE,FL
32666,12107,Putnam County,MELROSE,FL
32667,12083,Marion County,MICANOPY,FL
32667,12001,Alachua County,MICANOPY,FL
32668,12083,Marion County,MORRISTON,FL
32668,12075,Levy County,MORRISTON,FL
32669,12041,Gilchrist County,NEWBERRY,FL
32669,12075,Levy County,NEWBERRY,FL
32669,12001,Alachua County,NEWBERRY,FL
32680,12029,Dixie County,OLD TOWN,FL
32681,12083,Marion County,ORANGE LAKE,FL
32683,12075,Levy County,OTTER CREEK,FL
32686,12083,Marion County,REDDICK,FL
32692,12029,Dixie County,SUWANNEE,FL
32693,12041,Gilchrist County,TRENTON,FL
32693,12075,Levy County,TRENTON,FL
32694,12001,Alachua County,WALDO,FL
32696,12083,Marion County,WILLISTON,FL
32696,12001,Alachua County,WILLISTON,FL
32696,12075,Levy County,WILLISTON,FL
32697,12125,Union County,WORTHINGTON SPRINGS,FL
32701,12117,Seminole County,ALTAMONTE SPRINGS,FL
32702,12083,Marion County,ALTOONA,FL
32702,12069,Lake County,ALTOONA,FL
32703,12095,Orange County,APOPKA,FL
32703,12117,Seminole County,APOPKA,FL
32704,12095,Orange County,APOPKA,FL
32706,12127,Volusia County,CASSADAGA,FL
32707,12117,Seminole County,CASSELBERRY,FL
32708,12117,Seminole County,WINTER SPRINGS,FL
32709,12095,Orange County,CHRISTMAS,FL
32710,12095,Orange County,CLARCONA,FL
32712,12095,Orange County,APOPKA,FL
32712,12117,Seminole County,APOPKA,FL
32713,12127,Volusia County,DEBARY,FL
32714,12095,Orange County,ALTAMONTE SPRINGS,FL
32714,12117,Seminole County,ALTAMONTE SPRINGS,FL
32715,12117,Seminole County,ALTAMONTE SPRINGS,FL
32716,12117,Seminole County,ALTAMONTE SPRINGS,FL
32718,12117,Seminole County,CASSELBERRY,FL
32719,12117,Seminole County,WINTER SPRINGS,FL
32720,12069,Lake County,DELAND,FL
32720,12127,Volusia County,DELAND,FL
32721,12127,Volusia County,DELAND,FL
32723,12127,Volusia County,DELAND,FL
32724,12127,Volusia County,DELAND,FL
32725,12127,Volusia County,DELTONA,FL
32726,12069,Lake County,EUSTIS,FL
32727,12069,Lake County,EUSTIS,FL
32728,12127,Volusia County,DELTONA,FL
32730,12117,Seminole County,CASSELBERRY,FL
32732,12127,Volusia County,GENEVA,FL
32732,12117,Seminole County,GENEVA,FL
32733,12095,Orange County,GOLDENROD,FL
32735,12069,Lake County,GRAND ISLAND,FL
32736,12069,Lake County,EUSTIS,FL
32738,12127,Volusia County,DELTONA,FL
32739,12127,Volusia County,DELTONA,FL
32744,12127,Volusia County,LAKE HELEN,FL
32746,12117,Seminole County,LAKE MARY,FL
32747,12117,Seminole County,LAKE MONROE,FL
32750,12117,Seminole County,LONGWOOD,FL
32751,12095,Orange County,MAITLAND,FL
32751,12117,Seminole County,MAITLAND,FL
32752,12117,Seminole County,LONGWOOD,FL
32753,12127,Volusia County,DEBARY,FL
32754,12009,Brevard County,MIMS,FL
32754,12127,Volusia County,MIMS,FL
32756,12069,Lake County,MOUNT DORA,FL
32757,12069,Lake County,MOUNT DORA,FL
32757,12095,Orange County,MOUNT DORA,FL
32759,12127,Volusia County,OAK HILL,FL
32762,12117,Seminole County,OVIEDO,FL
32763,12127,Volusia County,ORANGE CITY,FL
32764,12127,Volusia County,OSTEEN,FL
32765,12117,Seminole County,OVIEDO,FL
32765,12095,Orange County,OVIEDO,FL
32766,12117,Seminole County,OVIEDO,FL
32767,12069,Lake County,PAISLEY,FL
32768,12095,Orange County,PLYMOUTH,FL
32771,12117,Seminole County,SANFORD,FL
32772,12117,Seminole County,SANFORD,FL
32773,12117,Seminole County,SANFORD,FL
32774,12127,Volusia County,ORANGE CITY,FL
32775,12009,Brevard County,SCOTTSMOOR,FL
32776,12069,Lake County,SORRENTO,FL
32776,12095,Orange County,SORRENTO,FL
32777,12095,Orange County,TANGERINE,FL
32778,12069,Lake County,TAVARES,FL
32779,12117,Seminole County,LONGWOOD,FL
32780,12009,Brevard County,TITUSVILLE,FL
32781,12009,Brevard County,TITUSVILLE,FL
32783,12009,Brevard County,TITUSVILLE,FL
32784,12069,Lake County,UMATILLA,FL
32784,12083,Marion County,UMATILLA,FL
32789,12095,Orange County,WINTER PARK,FL
32790,12095,Orange County,WINTER PARK,FL
32791,12117,Seminole County,LONGWOOD,FL
32792,12095,Orange County,WINTER PARK,FL
32792,12117,Seminole County,WINTER PARK,FL
32793,12095,Orange County,WINTER PARK,FL
32794,12095,Orange County,MAITLAND,FL
32795,12117,Seminole County,LAKE MARY,FL
32796,12009,Brevard County,TITUSVILLE,FL
32798,12095,Orange County,ZELLWOOD,FL
32799,12117,Seminole County,MID FLORIDA,FL
32801,12095,Orange County,ORLANDO,FL
32802,12095,Orange County,ORLANDO,FL
32803,12095,Orange County,ORLANDO,FL
32804,12095,Orange County,ORLANDO,FL
32805,12095,Orange County,ORLANDO,FL
32806,12095,Orange County,ORLANDO,FL
32807,12095,Orange County,ORLANDO,FL
32808,12095,Orange County,ORLANDO,FL
32809,12095,Orange County,ORLANDO,FL
32810,12095,Orange County,ORLANDO,FL
32811,12095,Orange County,ORLANDO,FL
32812,12095,Orange County,ORLANDO,FL
32814,12095,Orange County,ORLANDO,FL
32815,12009,Brevard County,ORLANDO,FL
32816,12095,Orange County,ORLANDO,FL
32817,12095,Orange County,ORLANDO,FL
32818,12095,Orange County,ORLANDO,FL
32819,12095,Orange County,ORLANDO,FL
32820,12095,Orange County,ORLANDO,FL
32821,12095,Orange County,ORLANDO,FL
32821,12097,Osceola County,ORLANDO,FL
32822,12095,Orange County,ORLANDO,FL
32824,12095,Orange County,ORLANDO,FL
32824,12097,Osceola County,ORLANDO,FL
32825,12095,Orange County,ORLANDO,FL
32826,12095,Orange County,ORLANDO,FL
32827,12095,Orange County,ORLANDO,FL
32828,12095,Orange County,ORLANDO,FL
32829,12095,Orange County,ORLANDO,FL
32830,12097,Osceola County,ORLANDO,FL
32830,12095,Orange County,ORLANDO,FL
32831,12095,Orange County,ORLANDO,FL
32832,12095,Orange County,ORLANDO,FL
32833,12095,Orange County,ORLANDO,FL
32835,12095,Orange County,ORLANDO,FL
32836,12095,Orange County,ORLANDO,FL
32837,12095,Orange County,ORLANDO,FL
32837,12097,Osceola County,ORLANDO,FL
32839,12095,Orange County,ORLANDO,FL
32853,12095,Orange County,ORLANDO,FL
32854,12095,Orange County,ORLANDO,FL
32855,12095,Orange County,ORLANDO,FL
32856,12095,Orange County,ORLANDO,FL
32857,12095,Orange County,ORLANDO,FL
32858,12095,Orange County,ORLANDO,FL
32859,12095,Orange County,ORLANDO,FL
32860,12095,Orange County,ORLANDO,FL
32861,12095,Orange County,ORLANDO,FL
32862,12095,Orange County,ORLANDO,FL
32867,12095,Orange County,ORLANDO,FL
32868,12095,Orange County,ORLANDO,FL
32869,12095,Orange County,ORLANDO,FL
32872,12095,Orange County,ORLANDO,FL
32877,12095,Orange County,ORLANDO,FL
32878,12095,Orange County,ORLANDO,FL
32899,12009,Brevard County,ORLANDO,FL
32901,12009,Brevard County,MELBOURNE,FL
32902,12009,Brevard County,MELBOURNE,FL
32903,12009,Brevard County,INDIALANTIC,FL
32904,12009,Brevard County,MELBOURNE,FL
32905,12009,Brevard County,PALM BAY,FL
32906,12009,Brevard County,PALM BAY,FL
32907,12009,Brevard County,PALM BAY,FL
32908,12009,Brevard County,PALM BAY,FL
32909,12009,Brevard County,PALM BAY,FL
32910,12009,Brevard County,PALM BAY,FL
32911,12009,Brevard County,PALM BAY,FL
32912,12009,Brevard County,MELBOURNE,FL
32920,12009,Brevard County,CAPE CANAVERAL,FL
32922,12009,Brevard County,COCOA,FL
32923,12009,Brevard County,COCOA,FL
32924,12009,Brevard County,COCOA,FL
32925,12009,Brevard County,PATRICK AIR FORCE BASE,FL
32926,12009,Brevard County,COCOA,FL
32927,12009,Brevard County,COCOA,FL
32931,12009,Brevard County,COCOA BEACH,FL
32932,12009,Brevard County,COCOA BEACH,FL
32934,12009,Brevard County,MELBOURNE,FL
32935,12009,Brevard County,MELBOURNE,FL
32936,12009,Brevard County,MELBOURNE,FL
32937,12009,Brevard County,SATELLITE BEACH,FL
32940,12009,Brevard County,MELBOURNE,FL
32941,12009,Brevard County,MELBOURNE,FL
32948,12009,Brevard County,FELLSMERE,FL
32948,12061,Indian River County,FELLSMERE,FL
32949,12009,Brevard County,GRANT,FL
32950,12009,Brevard County,MALABAR,FL
32951,12009,Brevard County,MELBOURNE BEACH,FL
32952,12009,Brevard County,MERRITT ISLAND,FL
32953,12009,Brevard County,MERRITT ISLAND,FL
32954,12009,Brevard County,MERRITT ISLAND,FL
32955,12009,Brevard County,ROCKLEDGE,FL
32956,12009,Brevard County,ROCKLEDGE,FL
32957,12061,Indian River County,ROSELAND,FL
32958,12061,Indian River County,SEBASTIAN,FL
32959,12009,Brevard County,SHARPES,FL
32960,12061,Indian River County,VERO BEACH,FL
32961,12061,Indian River County,VERO BEACH,FL
32962,12061,Indian River County,VERO BEACH,FL
32963,12061,Indian River County,VERO BEACH,FL
32964,12061,Indian River County,VERO BEACH,FL
32965,12061,Indian River County,VERO BEACH,FL
32966,12061,Indian River County,VERO BEACH,FL
32967,12061,Indian River County,VERO BEACH,FL
32968,12061,Indian River County,VERO BEACH,FL
32969,12061,Indian River County,VERO BEACH,FL
32970,12061,Indian River County,WABASSO,FL
32971,12061,Indian River County,WINTER BEACH,FL
32976,12009,Brevard County,SEBASTIAN,FL
32978,12061,Indian River County,SEBASTIAN,FL
33001,12087,Monroe County,LONG KEY,FL
33002,12086,Miami-Dade,HIALEAH,FL
33004,12011,Broward County,DANIA,FL
33008,12011,Broward County,HALLANDALE,FL
33009,12011,Broward County,HALLANDALE,FL
33010,12086,Miami-Dade,HIALEAH,FL
33011,12086,Miami-Dade,HIALEAH,FL
33012,12086,Miami-Dade,HIALEAH,FL
33013,12086,Miami-Dade,HIALEAH,FL
33014,12086,Miami-Dade,HIALEAH,FL
33015,12086,Miami-Dade,HIALEAH,FL
33016,12086,Miami-Dade,HIALEAH,FL
33017,12086,Miami-Dade,HIALEAH,FL
33018,12086,Miami-Dade,HIALEAH,FL
33018,12011,Broward County,HIALEAH,FL
33019,12011,Broward County,HOLLYWOOD,FL
33020,12011,Broward County,HOLLYWOOD,FL
33021,12011,Broward County,HOLLYWOOD,FL
33022,12011,Broward County,HOLLYWOOD,FL
33023,12011,Broward County,HOLLYWOOD,FL
33023,12086,Miami-Dade,HOLLYWOOD,FL
33024,12011,Broward County,HOLLYWOOD,FL
33025,12011,Broward County,HOLLYWOOD,FL
33026,12011,Broward County,HOLLYWOOD,FL
33027,12011,Broward County,HOLLYWOOD,FL
33028,12011,Broward County,PEMBROKE PINES,FL
33029,12011,Broward County,HOLLYWOOD,FL
33030,12086,Miami-Dade,HOMESTEAD,FL
33031,12086,Miami-Dade,HOMESTEAD,FL
33032,12086,Miami-Dade,HOMESTEAD,FL
33033,12086,Miami-Dade,HOMESTEAD,FL
33034,12087,Monroe County,HOMESTEAD,FL
33034,12086,Miami-Dade,HOMESTEAD,FL
33035,12086,Miami-Dade,HOMESTEAD,FL
33036,12087,Monroe County,ISLAMORADA,FL
33037,12087,Monroe County,KEY LARGO,FL
33039,12086,Miami-Dade,HOMESTEAD,FL
33040,12087,Monroe County,KEY WEST,FL
33041,12087,Monroe County,KEY WEST,FL
33042,12087,Monroe County,SUMMERLAND KEY,FL
33043,12087,Monroe County,BIG PINE KEY,FL
33045,12087,Monroe County,KEY WEST,FL
33050,12087,Monroe County,MARATHON,FL
33051,12087,Monroe County,KEY COLONY BEACH,FL
33052,12087,Monroe County,MARATHON SHORES,FL
33054,12086,Miami-Dade,OPA LOCKA,FL
33055,12086,Miami-Dade,OPA LOCKA,FL
33056,12011,Broward County,MIAMI GARDENS,FL
33056,12086,Miami-Dade,MIAMI GARDENS,FL
33060,12011,Broward County,POMPANO BEACH,FL
33061,12011,Broward County,POMPANO BEACH,FL
33062,12011,Broward County,POMPANO BEACH,FL
33063,12011,Broward County,POMPANO BEACH,FL
33064,12011,Broward County,POMPANO BEACH,FL
33065,12011,Broward County,CORAL SPRINGS,FL
33066,12011,Broward County,POMPANO BEACH,FL
33067,12011,Broward County,POMPANO BEACH,FL
33068,12011,Broward County,POMPANO BEACH,FL
33069,12011,Broward County,POMPANO BEACH,FL
33070,12087,Monroe County,TAVERNIER,FL
33071,12011,Broward County,CORAL SPRINGS,FL
33073,12011,Broward County,POMPANO BEACH,FL
33074,12011,Broward County,POMPANO BEACH,FL
33075,12011,Broward County,CORAL SPRINGS,FL
33076,12011,Broward County,POMPANO BEACH,FL
33077,12011,Broward County,POMPANO BEACH,FL
33081,12011,Broward County,HOLLYWOOD,FL
33082,12011,Broward County,PEMBROKE PINES,FL
33083,12011,Broward County,HOLLYWOOD,FL
33084,12011,Broward County,HOLLYWOOD,FL
33090,12086,Miami-Dade,HOMESTEAD,FL
33092,12086,Miami-Dade,HOMESTEAD,FL
33093,12011,Broward County,MARGATE,FL
33097,12011,Broward County,COCONUT CREEK,FL
33101,12086,Miami-Dade,MIAMI,FL
33106,12086,Miami-Dade,MIAMI,FL
33109,12086,Miami-Dade,MIAMI BEACH,FL
33112,12086,Miami-Dade,MIAMI,FL
33114,12086,Miami-Dade,CORAL GABLES,FL
33116,12086,Miami-Dade,MIAMI,FL
33119,12086,Miami-Dade,MIAMI BEACH,FL
33122,12086,Miami-Dade,MIAMI,FL
33124,12086,Miami-Dade,MIAMI,FL
33125,12086,Miami-Dade,MIAMI,FL
33126,12086,Miami-Dade,MIAMI,FL
33127,12086,Miami-Dade,MIAMI,FL
33128,12086,Miami-Dade,MIAMI,FL
33129,12086,Miami-Dade,MIAMI,FL
33130,12086,Miami-Dade,MIAMI,FL
33131,12086,Miami-Dade,MIAMI,FL
33132,12086,Miami-Dade,MIAMI,FL
33133,12086,Miami-Dade,MIAMI,FL
33134,12086,Miami-Dade,MIAMI,FL
33135,12086,Miami-Dade,MIAMI,FL
33136,12086,Miami-Dade,MIAMI,FL
33137,12086,Miami-Dade,MIAMI,FL
33138,12086,Miami-Dade,MIAMI,FL
33139,12086,Miami-Dade,MIAMI BEACH,FL
33140,12086,Miami-Dade,MIAMI BEACH,FL
33141,12086,Miami-Dade,MIAMI BEACH,FL
33142,12086,Miami-Dade,MIAMI,FL
33143,12086,Miami-Dade,MIAMI,FL
33144,12086,Miami-Dade,MIAMI,FL
33145,12086,Miami-Dade,MIAMI,FL
33146,12086,Miami-Dade,MIAMI,FL
33147,12086,Miami-Dade,MIAMI,FL
33149,12086,Miami-Dade,KEY BISCAYNE,FL
33150,12086,Miami-Dade,MIAMI,FL
33152,12086,Miami-Dade,MIAMI,FL
33153,12086,Miami-Dade,MIAMI,FL
33154,12086,Miami-Dade,MIAMI BEACH,FL
33155,12086,Miami-Dade,MIAMI,FL
33156,12086,Miami-Dade,MIAMI,FL
33157,12086,Miami-Dade,MIAMI,FL
33158,12086,Miami-Dade,MIAMI,FL
33160,12086,Miami-Dade,NORTH MIAMI BEACH,FL
33161,12086,Miami-Dade,MIAMI,FL
33162,12086,Miami-Dade,MIAMI,FL
33163,12086,Miami-Dade,MIAMI,FL
33164,12086,Miami-Dade,MIAMI,FL
33165,12086,Miami-Dade,MIAMI,FL
33166,12086,Miami-Dade,MIAMI,FL
33167,12086,Miami-Dade,MIAMI,FL
33168,12086,Miami-Dade,MIAMI,FL
33169,12086,Miami-Dade,MIAMI,FL
33170,12086,Miami-Dade,MIAMI,FL
33172,12086,Miami-Dade,MIAMI,FL
33173,12086,Miami-Dade,MIAMI,FL
33174,12086,Miami-Dade,MIAMI,FL
33175,12086,Miami-Dade,MIAMI,FL
33176,12086,Miami-Dade,MIAMI,FL
33177,12086,Miami-Dade,MIAMI,FL
33178,12086,Miami-Dade,MIAMI,FL
33179,12086,Miami-Dade,MIAMI,FL
33179,12011,Broward County,MIAMI,FL
33180,12086,Miami-Dade,MIAMI,FL
33181,12086,Miami-Dade,MIAMI,FL
33182,12086,Miami-Dade,MIAMI,FL
33183,12086,Miami-Dade,MIAMI,FL
33184,12086,Miami-Dade,MIAMI,FL
33185,12086,Miami-Dade,MIAMI,FL
33186,12086,Miami-Dade,MIAMI,FL
33187,12086,Miami-Dade,MIAMI,FL
33189,12086,Miami-Dade,MIAMI,FL
33190,12086,Miami-Dade,MIAMI,FL
33191,12086,Miami-Dade,MIAMI,FL
33192,12086,Miami-Dade,MIAMI,FL
33193,12086,Miami-Dade,MIAMI,FL
33194,12086,Miami-Dade,MIAMI,FL
33195,12086,Miami-Dade,MIAMI,FL
33196,12086,Miami-Dade,MIAMI,FL
33197,12086,Miami-Dade,MIAMI,FL
33198,12086,Miami-Dade,MIAMI,FL
33199,12086,Miami-Dade,MIAMI,FL
33206,12086,Miami-Dade,MIAMI,FL
33222,12086,Miami-Dade,MIAMI,FL
33231,12086,Miami-Dade,MIAMI,FL
33233,12086,Miami-Dade,MIAMI,FL
33234,12086,Miami-Dade,MIAMI,FL
33238,12086,Miami-Dade,MIAMI,FL
33239,12086,Miami-Dade,MIAMI BEACH,FL
33242,12086,Miami-Dade,MIAMI,FL
33243,12086,Miami-Dade,MIAMI,FL
33245,12086,Miami-Dade,MIAMI,FL
33247,12086,Miami-Dade,MIAMI,FL
33255,12086,Miami-Dade,MIAMI,FL
33256,12086,Miami-Dade,MIAMI,FL
33257,12086,Miami-Dade,MIAMI,FL
33261,12086,Miami-Dade,MIAMI,FL
33265,12086,Miami-Dade,MIAMI,FL
33266,12086,Miami-Dade,MIAMI,FL
33269,12086,Miami-Dade,MIAMI,FL
33280,12086,Miami-Dade,MIAMI,FL
33283,12086,Miami-Dade,MIAMI,FL
33296,12086,Miami-Dade,MIAMI,FL
33301,12011,Broward County,FORT LAUDERDALE,FL
33302,12011,Broward County,FORT LAUDERDALE,FL
33303,12011,Broward County,FORT LAUDERDALE,FL
33304,12011,Broward County,FORT LAUDERDALE,FL
33305,12011,Broward County,FORT LAUDERDALE,FL
33306,12011,Broward County,FORT LAUDERDALE,FL
33307,12011,Broward County,FORT LAUDERDALE,FL
33308,12011,Broward County,FORT LAUDERDALE,FL
33309,12011,Broward County,FORT LAUDERDALE,FL
33310,12011,Broward County,FORT LAUDERDALE,FL
33311,12011,Broward County,FORT LAUDERDALE,FL
33312,12011,Broward County,FORT LAUDERDALE,FL
33313,12011,Broward County,FORT LAUDERDALE,FL
33314,12011,Broward County,FORT LAUDERDALE,FL
33315,12011,Broward County,FORT LAUDERDALE,FL
33316,12011,Broward County,FORT LAUDERDALE,FL
33317,12011,Broward County,FORT LAUDERDALE,FL
33318,12011,Broward County,FORT LAUDERDALE,FL
33319,12011,Broward County,FORT LAUDERDALE,FL
33320,12011,Broward County,FORT LAUDERDALE,FL
33321,12011,Broward County,FORT LAUDERDALE,FL
33322,12011,Broward County,FORT LAUDERDALE,FL
33323,12011,Broward County,FORT LAUDERDALE,FL
33324,12011,Broward County,FORT LAUDERDALE,FL
33325,12011,Broward County,FORT LAUDERDALE,FL
33326,12011,Broward County,FORT LAUDERDALE,FL
33327,12011,Broward County,FORT LAUDERDALE,FL
33328,12011,Broward County,FORT LAUDERDALE,FL
33329,12011,Broward County,FORT LAUDERDALE,FL
33330,12011,Broward County,FORT LAUDERDALE,FL
33331,12011,Broward County,FORT LAUDERDALE,FL
33332,12011,Broward County,FORT LAUDERDALE,FL
33334,12011,Broward County,FORT LAUDERDALE,FL
33335,12011,Broward County,FORT LAUDERDALE,FL
33338,12011,Broward County,FORT LAUDERDALE,FL
33339,12011,Broward County,FORT LAUDERDALE,FL
33345,12011,Broward County,FORT LAUDERDALE,FL
33346,12011,Broward County,FORT LAUDERDALE,FL
33348,12011,Broward County,FORT LAUDERDALE,FL
33351,12011,Broward County,FORT LAUDERDALE,FL
33355,12011,Broward County,FORT LAUDERDALE,FL
33359,12011,Broward County,FORT LAUDERDALE,FL
33388,12011,Broward County,PLANTATION,FL
33394,12011,Broward County,FORT LAUDERDALE,FL
33401,12099,Palm Beach County,WEST PALM BEACH,FL
33402,12099,Palm Beach County,WEST PALM BEACH,FL
33403,12099,Palm Beach County,WEST PALM BEACH,FL
33404,12099,Palm Beach County,WEST PALM BEACH,FL
33405,12099,Palm Beach County,WEST PALM BEACH,FL
33406,12099,Palm Beach County,WEST PALM BEACH,FL
33407,12099,Palm Beach County,WEST PALM BEACH,FL
33408,12099,Palm Beach County,NORTH PALM BEACH,FL
33409,12099,Palm Beach County,WEST PALM BEACH,FL
33410,12099,Palm Beach County,PALM BEACH GARDENS,FL
33411,12099,Palm Beach County,WEST PALM BEACH,FL
33412,12099,Palm Beach County,WEST PALM BEACH,FL
33413,12099,Palm Beach County,WEST PALM BEACH,FL
33414,12099,Palm Beach County,WELLINGTON,FL
33415,12099,Palm Beach County,WEST PALM BEACH,FL
33416,12099,Palm Beach County,WEST PALM BEACH,FL
33417,12099,Palm Beach County,WEST PALM BEACH,FL
33418,12099,Palm Beach County,PALM BEACH GARDENS,FL
33419,12099,Palm Beach County,WEST PALM BEACH,FL
33420,12099,Palm Beach County,WEST PALM BEACH,FL
33421,12099,Palm Beach County,ROYAL PALM BEACH,FL
33422,12099,Palm Beach County,WEST PALM BEACH,FL
33424,12099,Palm Beach County,BOYNTON BEACH,FL
33425,12099,Palm Beach County,BOYNTON BEACH,FL
33426,12099,Palm Beach County,BOYNTON BEACH,FL
33427,12099,Palm Beach County,BOCA RATON,FL
33428,12099,Palm Beach County,BOCA RATON,FL
33429,12099,Palm Beach County,BOCA RATON,FL
33430,12099,Palm Beach County,BELLE GLADE,FL
33431,12099,Palm Beach County,BOCA RATON,FL
33432,12011,Broward County,BOCA RATON,FL
33432,12099,Palm Beach County,BOCA RATON,FL
33433,12099,Palm Beach County,BOCA RATON,FL
33434,12099,Palm Beach County,BOCA RATON,FL
33435,12099,Palm Beach County,BOYNTON BEACH,FL
33436,12099,Palm Beach County,BOYNTON BEACH,FL
33437,12099,Palm Beach County,BOYNTON BEACH,FL
33438,12099,Palm Beach County,CANAL POINT,FL
33438,12085,Martin County,CANAL POINT,FL
33440,12099,Palm Beach County,CLEWISTON,FL
33440,12051,Hendry County,CLEWISTON,FL
33441,12099,Palm Beach County,DEERFIELD BEACH,FL
33441,12011,Broward County,DEERFIELD BEACH,FL
33442,12011,Broward County,DEERFIELD BEACH,FL
33443,12011,Broward County,DEERFIELD BEACH,FL
33444,12099,Palm Beach County,DELRAY BEACH,FL
33445,12099,Palm Beach County,DELRAY BEACH,FL
33446,12099,Palm Beach County,DELRAY BEACH,FL
33448,12099,Palm Beach County,DELRAY BEACH,FL
33449,12099,Palm Beach County,LAKE WORTH,FL
33454,12099,Palm Beach County,GREENACRES,FL
33455,12085,Martin County,HOBE SOUND,FL
33458,12085,Martin County,JUPITER,FL
33458,12099,Palm Beach County,JUPITER,FL
33459,12099,Palm Beach County,LAKE HARBOR,FL
33460,12099,Palm Beach County,LAKE WORTH BEACH,FL
33461,12099,Palm Beach County,LAKE WORTH,FL
33462,12099,Palm Beach County,LAKE WORTH,FL
33463,12099,Palm Beach County,LAKE WORTH,FL
33464,12099,Palm Beach County,BOCA RATON,FL
33465,12099,Palm Beach County,LAKE WORTH,FL
33466,12099,Palm Beach County,LAKE WORTH,FL
33467,12099,Palm Beach County,LAKE WORTH,FL
33468,12099,Palm Beach County,JUPITER,FL
33469,12099,Palm Beach County,JUPITER,FL
33469,12085,Martin County,JUPITER,FL
33470,12099,Palm Beach County,LOXAHATCHEE,FL
33471,12051,Hendry County,MOORE HAVEN,FL
33471,12043,Glades County,MOORE HAVEN,FL
33472,12099,Palm Beach County,BOYNTON BEACH,FL
33473,12099,Palm Beach County,BOYNTON BEACH,FL
33474,12099,Palm Beach County,BOYNTON BEACH,FL
33475,12085,Martin County,HOBE SOUND,FL
33476,12099,Palm Beach County,PAHOKEE,FL
33477,12099,Palm Beach County,JUPITER,FL
33478,12099,Palm Beach County,JUPITER,FL
33478,12085,Martin County,JUPITER,FL
33480,12099,Palm Beach County,PALM BEACH,FL
33481,12099,Palm Beach County,BOCA RATON,FL
33482,12099,Palm Beach County,DELRAY BEACH,FL
33483,12099,Palm Beach County,DELRAY BEACH,FL
33484,12099,Palm Beach County,DELRAY BEACH,FL
33486,12099,Palm Beach County,BOCA RATON,FL
33487,12099,Palm Beach County,BOCA RATON,FL
33488,12099,Palm Beach County,BOCA RATON,FL
33493,12099,Palm Beach County,SOUTH BAY,FL
33496,12099,Palm Beach County,BOCA RATON,FL
33497,12099,Palm Beach County,BOCA RATON,FL
33498,12099,Palm Beach County,BOCA RATON,FL
33499,12099,Palm Beach County,BOCA RATON,FL
33503,12057,Hillsborough County,BALM,FL
33508,12057,Hillsborough County,BRANDON,FL
33509,12057,Hillsborough County,BRANDON,FL
33510,12057,Hillsborough County,BRANDON,FL
33511,12057,Hillsborough County,BRANDON,FL
33513,12119,Sumter County,BUSHNELL,FL
33514,12119,Sumter County,CENTER HILL,FL
33521,12119,Sumter County,COLEMAN,FL
33523,12053,Hernando County,DADE CITY,FL
33523,12101,Pasco County,DADE CITY,FL
33524,12101,Pasco County,CRYSTAL SPRINGS,FL
33525,12101,Pasco County,DADE CITY,FL
33526,12101,Pasco County,DADE CITY,FL
33527,12057,Hillsborough County,DOVER,FL
33530,12057,Hillsborough County,DURANT,FL
33534,12057,Hillsborough County,GIBSONTON,FL
33537,12101,Pasco County,LACOOCHEE,FL
33538,12119,Sumter County,LAKE PANASOFFKEE,FL
33539,12101,Pasco County,ZEPHYRHILLS,FL
33540,12101,Pasco County,ZEPHYRHILLS,FL
33540,12057,Hillsborough County,ZEPHYRHILLS,FL
33541,12101,Pasco County,ZEPHYRHILLS,FL
33542,12101,Pasco County,ZEPHYRHILLS,FL
33543,12101,Pasco County,WESLEY CHAPEL,FL
33544,12057,Hillsborough County,WESLEY CHAPEL,FL
33544,12101,Pasco County,WESLEY CHAPEL,FL
33545,12101,Pasco County,WESLEY CHAPEL,FL
33547,12105,Polk County,LITHIA,FL
33547,12057,Hillsborough County,LITHIA,FL
33548,12057,Hillsborough County,LUTZ,FL
33548,12101,Pasco County,LUTZ,FL
33549,12057,Hillsborough County,LUTZ,FL
33549,12101,Pasco County,LUTZ,FL
33550,12057,Hillsborough County,MANGO,FL
33556,12101,Pasco County,ODESSA,FL
33556,12057,Hillsborough County,ODESSA,FL
33558,12101,Pasco County,LUTZ,FL
33558,12057,Hillsborough County,LUTZ,FL
33559,12057,Hillsborough County,LUTZ,FL
33559,12101,Pasco County,LUTZ,FL
33563,12057,Hillsborough County,PLANT CITY,FL
33564,12057,Hillsborough County,PLANT CITY,FL
33565,12057,Hillsborough County,PLANT CITY,FL
33566,12057,Hillsborough County,PLANT CITY,FL
33567,12057,Hillsborough County,PLANT CITY,FL
33568,12057,Hillsborough County,RIVERVIEW,FL
33569,12057,Hillsborough County,RIVERVIEW,FL
33570,12057,Hillsborough County,RUSKIN,FL
33571,12057,Hillsborough County,SUN CITY CENTER,FL
33572,12057,Hillsborough County,APOLLO BEACH,FL
33573,12057,Hillsborough County,SUN CITY CENTER,FL
33574,12101,Pasco County,SAINT LEO,FL
33575,12057,Hillsborough County,RUSKIN,FL
33576,12101,Pasco County,SAN ANTONIO,FL
33578,12057,Hillsborough County,RIVERVIEW,FL
33579,12057,Hillsborough County,RIVERVIEW,FL
33583,12057,Hillsborough County,SEFFNER,FL
33584,12057,Hillsborough County,SEFFNER,FL
33585,12119,Sumter County,SUMTERVILLE,FL
33586,12057,Hillsborough County,SUN CITY,FL
33587,12057,Hillsborough County,SYDNEY,FL
33592,12057,Hillsborough County,THONOTOSASSA,FL
33593,12101,Pasco County,TRILBY,FL
33594,12057,Hillsborough County,VALRICO,FL
33595,12057,Hillsborough County,VALRICO,FL
33596,12057,Hillsborough County,VALRICO,FL
33597,12119,Sumter County,WEBSTER,FL
33597,12101,Pasco County,WEBSTER,FL
33597,12053,Hernando County,WEBSTER,FL
33598,12081,Manatee County,WIMAUMA,FL
33598,12057,Hillsborough County,WIMAUMA,FL
33601,12057,Hillsborough County,TAMPA,FL
33602,12057,Hillsborough County,TAMPA,FL
33603,12057,Hillsborough County,TAMPA,FL
33604,12057,Hillsborough County,TAMPA,FL
33605,12057,Hillsborough County,TAMPA,FL
33606,12057,Hillsborough County,TAMPA,FL
33607,12057,Hillsborough County,TAMPA,FL
33609,12057,Hillsborough County,TAMPA,FL
33610,12057,Hillsborough County,TAMPA,FL
33611,12057,Hillsborough County,TAMPA,FL
33612,12057,Hillsborough County,TAMPA,FL
33613,12057,Hillsborough County,TAMPA,FL
33614,12057,Hillsborough County,TAMPA,FL
33615,12057,Hillsborough County,TAMPA,FL
33616,12057,Hillsborough County,TAMPA,FL
33617,12057,Hillsborough County,TAMPA,FL
33618,12057,Hillsborough County,TAMPA,FL
33619,12057,Hillsborough County,TAMPA,FL
33620,12057,Hillsborough County,TAMPA,FL
33621,12057,Hillsborough County,TAMPA,FL
33622,12057,Hillsborough County,TAMPA,FL
33623,12057,Hillsborough County,TAMPA,FL
33624,12057,Hillsborough County,TAMPA,FL
33625,12057,Hillsborough County,TAMPA,FL
33626,12103,Pinellas County,TAMPA,FL
33626,12057,Hillsborough County,TAMPA,FL
33629,12057,Hillsborough County,TAMPA,FL
33630,12057,Hillsborough County,TAMPA,FL
33634,12057,Hillsborough County,TAMPA,FL
33635,12057,Hillsborough County,TAMPA,FL
33637,12057,Hillsborough County,TAMPA,FL
33646,12057,Hillsborough County,TAMPA,FL
33647,12057,Hillsborough County,TAMPA,FL
33672,12057,Hillsborough County,TAMPA,FL
33673,12057,Hillsborough County,TAMPA,FL
33674,12057,Hillsborough County,TAMPA,FL
33675,12057,Hillsborough County,TAMPA,FL
33677,12057,Hillsborough County,TAMPA,FL
33679,12057,Hillsborough County,TAMPA,FL
33680,12057,Hillsborough County,TAMPA,FL
33681,12057,Hillsborough County,TAMPA,FL
33682,12057,Hillsborough County,TAMPA,FL
33684,12057,Hillsborough County,TAMPA,FL
33685,12057,Hillsborough County,TAMPA,FL
33687,12057,Hillsborough County,TAMPA,FL
33688,12057,Hillsborough County,TAMPA,FL
33689,12057,Hillsborough County,TAMPA,FL
33694,12057,Hillsborough County,TAMPA,FL
33701,12103,Pinellas County,SAINT PETERSBURG,FL
33702,12103,Pinellas County,SAINT PETERSBURG,FL
33703,12103,Pinellas County,SAINT PETERSBURG,FL
33704,12103,Pinellas County,SAINT PETERSBURG,FL
33705,12103,Pinellas County,SAINT PETERSBURG,FL
33706,12103,Pinellas County,SAINT PETERSBURG,FL
33707,12103,Pinellas County,SAINT PETERSBURG,FL
33708,12103,Pinellas County,SAINT PETERSBURG,FL
33709,12103,Pinellas County,SAINT PETERSBURG,FL
33710,12103,Pinellas County,SAINT PETERSBURG,FL
33711,12103,Pinellas County,SAINT PETERSBURG,FL
33712,12103,Pinellas County,SAINT PETERSBURG,FL
33713,12103,Pinellas County,SAINT PETERSBURG,FL
33714,12103,Pinellas County,SAINT PETERSBURG,FL
33715,12103,Pinellas County,SAINT PETERSBURG,FL
33716,12103,Pinellas County,SAINT PETERSBURG,FL
33729,12103,Pinellas County,SAINT PETERSBURG,FL
33730,12103,Pinellas County,SAINT PETERSBURG,FL
33731,12103,Pinellas County,SAINT PETERSBURG,FL
33732,12103,Pinellas County,SAINT PETERSBURG,FL
33733,12103,Pinellas County,SAINT PETERSBURG,FL
33734,12103,Pinellas County,SAINT PETERSBURG,FL
33736,12103,Pinellas County,SAINT PETERSBURG,FL
33738,12103,Pinellas County,SAINT PETERSBURG,FL
33741,12103,Pinellas County,SAINT PETERSBURG,FL
33742,12103,Pinellas County,SAINT PETERSBURG,FL
33743,12103,Pinellas County,SAINT PETERSBURG,FL
33744,12103,Pinellas County,BAY PINES,FL
33747,12103,Pinellas County,SAINT PETERSBURG,FL
33755,12103,Pinellas County,CLEARWATER,FL
33756,12103,Pinellas County,CLEARWATER,FL
33757,12103,Pinellas County,CLEARWATER,FL
33758,12103,Pinellas County,CLEARWATER,FL
33759,12103,Pinellas County,CLEARWATER,FL
33760,12103,Pinellas County,CLEARWATER,FL
33761,12103,Pinellas County,CLEARWATER,FL
33762,12103,Pinellas County,CLEARWATER,FL
33763,12103,Pinellas County,CLEARWATER,FL
33764,12103,Pinellas County,CLEARWATER,FL
33765,12103,Pinellas County,CLEARWATER,FL
33766,12103,Pinellas County,CLEARWATER,FL
33767,12103,Pinellas County,CLEARWATER BEACH,FL
33770,12103,Pinellas County,LARGO,FL
33771,12103,Pinellas County,LARGO,FL
33772,12103,Pinellas County,SEMINOLE,FL
33773,12103,Pinellas County,LARGO,FL
33774,12103,Pinellas County,LARGO,FL
33775,12103,Pinellas County,SEMINOLE,FL
33776,12103,Pinellas County,SEMINOLE,FL
33777,12103,Pinellas County,SEMINOLE,FL
33778,12103,Pinellas County,LARGO,FL
33779,12103,Pinellas County,LARGO,FL
33780,12103,Pinellas County,PINELLAS PARK,FL
33781,12103,Pinellas County,PINELLAS PARK,FL
33782,12103,Pinellas County,PINELLAS PARK,FL
33784,12103,Pinellas County,SAINT PETERSBURG,FL
33785,12103,Pinellas County,INDIAN ROCKS BEACH,FL
33786,12103,Pinellas County,BELLEAIR BEACH,FL
33801,12105,Polk County,LAKELAND,FL
33802,12105,Polk County,LAKELAND,FL
33803,12105,Polk County,LAKELAND,FL
33804,12105,Polk County,LAKELAND,FL
33805,12105,Polk County,LAKELAND,FL
33806,12105,Polk County,LAKELAND,FL
33807,12105,Polk County,LAKELAND,FL
33809,12101,Pasco County,LAKELAND,FL
33809,12105,Polk County,LAKELAND,FL
33810,12105,Polk County,LAKELAND,FL
33810,12057,Hillsborough County,LAKELAND,FL
33811,12105,Polk County,LAKELAND,FL
33812,12105,Polk County,LAKELAND,FL
33813,12105,Polk County,LAKELAND,FL
33815,12105,Polk County,LAKELAND,FL
33820,12105,Polk County,ALTURAS,FL
33823,12105,Polk County,AUBURNDALE,FL
33825,12105,Polk County,AVON PARK,FL
33825,12055,Highlands County,AVON PARK,FL
33826,12055,Highlands County,AVON PARK,FL
33827,12105,Polk County,BABSON PARK,FL
33830,12105,Polk County,BARTOW,FL
33831,12105,Polk County,BARTOW,FL
33834,12105,Polk County,BOWLING GREEN,FL
33834,12049,Hardee County,BOWLING GREEN,FL
33835,12105,Polk County,BRADLEY,FL
33836,12105,Polk County,DAVENPORT,FL
33837,12105,Polk County,DAVENPORT,FL
33838,12105,Polk County,DUNDEE,FL
33839,12105,Polk County,EAGLE LAKE,FL
33840,12105,Polk County,EATON PARK,FL
33841,12049,Hardee County,FORT MEADE,FL
33841,12105,Polk County,FORT MEADE,FL
33843,12105,Polk County,FROSTPROOF,FL
33843,12055,Highlands County,FROSTPROOF,FL
33844,12105,Polk County,HAINES CITY,FL
33845,12105,Polk County,HAINES CITY,FL
33846,12105,Polk County,HIGHLAND CITY,FL
33847,12105,Polk County,HOMELAND,FL
33848,12097,Osceola County,INTERCESSION CITY,FL
33849,12101,Pasco County,KATHLEEN,FL
33849,12105,Polk County,KATHLEEN,FL
33850,12105,Polk County,LAKE ALFRED,FL
33851,12105,Polk County,LAKE HAMILTON,FL
33852,12055,Highlands County,LAKE PLACID,FL
33853,12105,Polk County,LAKE WALES,FL
33854,12105,Polk County,LAKESHORE,FL
33855,12105,Polk County,INDIAN LAKE ESTATES,FL
33856,12105,Polk County,NALCREST,FL
33857,12055,Highlands County,LORIDA,FL
33858,12105,Polk County,LOUGHMAN,FL
33859,12105,Polk County,LAKE WALES,FL
33860,12105,Polk County,MULBERRY,FL
33860,12057,Hillsborough County,MULBERRY,FL
33862,12055,Highlands County,LAKE PLACID,FL
33863,12105,Polk County,NICHOLS,FL
33865,12049,Hardee County,ONA,FL
33865,12027,DeSoto County,ONA,FL
33867,12105,Polk County,RIVER RANCH,FL
33868,12105,Polk County,POLK CITY,FL
33870,12055,Highlands County,SEBRING,FL
33871,12055,Highlands County,SEBRING,FL
33872,12055,Highlands County,SEBRING,FL
33873,12049,Hardee County,WAUCHULA,FL
33875,12055,Highlands County,SEBRING,FL
33876,12055,Highlands County,SEBRING,FL
33877,12105,Polk County,WAVERLY,FL
33880,12105,Polk County,WINTER HAVEN,FL
33881,12105,Polk County,WINTER HAVEN,FL
33882,12105,Polk County,WINTER HAVEN,FL
33883,12105,Polk County,WINTER HAVEN,FL
33884,12105,Polk County,WINTER HAVEN,FL
33885,12105,Polk County,WINTER HAVEN,FL
33890,12049,Hardee County,ZOLFO SPRINGS,FL
33896,12105,Polk County,DAVENPORT,FL
33896,12097,Osceola County,DAVENPORT,FL
33897,12097,Osceola County,DAVENPORT,FL
33897,12105,Polk County,DAVENPORT,FL
33898,12105,Polk County,LAKE WALES,FL
33901,12071,Lee County,FORT MYERS,FL
33902,12071,Lee County,FORT MYERS,FL
33903,12071,Lee County,NORTH FORT MYERS,FL
33904,12071,Lee County,CAPE CORAL,FL
33905,12071,Lee County,FORT MYERS,FL
33906,12071,Lee County,FORT MYERS,FL
33907,12071,Lee County,FORT MYERS,FL
33908,12071,Lee County,FORT MYERS,FL
33909,12071,Lee County,CAPE CORAL,FL
33910,12071,Lee County,CAPE CORAL,FL
33912,12071,Lee County,FORT MYERS,FL
33913,12071,Lee County,FORT MYERS,FL
33914,12071,Lee County,CAPE CORAL,FL
33915,12071,Lee County,CAPE CORAL,FL
33916,12071,Lee County,FORT MYERS,FL
33917,12015,Charlotte County,NORTH FORT MYERS,FL
33917,12071,Lee County,NORTH FORT MYERS,FL
33918,12071,Lee County,NORTH FORT MYERS,FL
33919,12071,Lee County,FORT MYERS,FL
33920,12071,Lee County,ALVA,FL
33921,12071,Lee County,BOCA GRANDE,FL
33922,12071,Lee County,BOKEELIA,FL
33924,12071,Lee County,CAPTIVA,FL
33928,12021,Collier County,ESTERO,FL
33928,12071,Lee County,ESTERO,FL
33929,12071,Lee County,ESTERO,FL
33930,12051,Hendry County,FELDA,FL
33931,12071,Lee County,FORT MYERS BEACH,FL
33932,12071,Lee County,FORT MYERS BEACH,FL
33935,12051,Hendry County,LABELLE,FL
33935,12043,Glades County,LABELLE,FL
33936,12071,Lee County,LEHIGH ACRES,FL
33936,12051,Hendry County,LEHIGH ACRES,FL
33938,12015,Charlotte County,MURDOCK,FL
33944,12043,Glades County,PALMDALE,FL
33945,12071,Lee County,PINELAND,FL
33946,12015,Charlotte County,PLACIDA,FL
33947,12015,Charlotte County,ROTONDA WEST,FL
33948,12015,Charlotte County,PORT CHARLOTTE,FL
33949,12015,Charlotte County,PORT CHARLOTTE,FL
33950,12015,Charlotte County,PUNTA GORDA,FL
33951,12015,Charlotte County,PUNTA GORDA,FL
33952,12015,Charlotte County,PORT CHARLOTTE,FL
33953,12015,Charlotte County,PORT CHARLOTTE,FL
33954,12015,Charlotte County,PORT CHARLOTTE,FL
33955,12015,Charlotte County,PUNTA GORDA,FL
33955,12071,Lee County,PUNTA GORDA,FL
33956,12071,Lee County,SAINT JAMES CITY,FL
33957,12071,Lee County,SANIBEL,FL
33960,12055,Highlands County,VENUS,FL
33960,12043,Glades County,VENUS,FL
33965,12071,Lee County,FORT MYERS,FL
33966,12071,Lee County,FORT MYERS,FL
33967,12071,Lee County,FORT MYERS,FL
33970,12071,Lee County,LEHIGH ACRES,FL
33971,12071,Lee County,LEHIGH ACRES,FL
33972,12071,Lee County,LEHIGH ACRES,FL
33973,12071,Lee County,LEHIGH ACRES,FL
33974,12071,Lee County,LEHIGH ACRES,FL
33975,12051,Hendry County,LABELLE,FL
33976,12071,Lee County,LEHIGH ACRES,FL
33980,12015,Charlotte County,PUNTA GORDA,FL
33981,12015,Charlotte County,PORT CHARLOTTE,FL
33982,12015,Charlotte County,PUNTA GORDA,FL
33983,12015,Charlotte County,PUNTA GORDA,FL
33990,12071,Lee County,CAPE CORAL,FL
33991,12071,Lee County,CAPE CORAL,FL
33993,12071,Lee County,CAPE CORAL,FL
33994,12071,Lee County,FORT MYERS,FL
34101,12021,Collier County,NAPLES,FL
34102,12021,Collier County,NAPLES,FL
34103,12021,Collier County,NAPLES,FL
34104,12021,Collier County,NAPLES,FL
34105,12021,Collier County,NAPLES,FL
34106,12021,Collier County,NAPLES,FL
34107,12021,Collier County,NAPLES,FL
34108,12021,Collier County,NAPLES,FL
34109,12021,Collier County,NAPLES,FL
34110,12021,Collier County,NAPLES,FL
34110,12071,Lee County,NAPLES,FL
34112,12021,Collier County,NAPLES,FL
34113,12021,Collier County,NAPLES,FL
34114,12021,Collier County,NAPLES,FL
34116,12021,Collier County,NAPLES,FL
34117,12021,Collier County,NAPLES,FL
34119,12021,Collier County,NAPLES,FL
34119,12071,Lee County,NAPLES,FL
34120,12021,Collier County,NAPLES,FL
34133,12071,Lee County,BONITA SPRINGS,FL
34134,12071,Lee County,BONITA SPRINGS,FL
34134,12021,Collier County,BONITA SPRINGS,FL
34135,12071,Lee County,BONITA SPRINGS,FL
34136,12071,Lee County,BONITA SPRINGS,FL
34138,12021,Collier County,CHOKOLOSKEE,FL
34139,12021,Collier County,EVERGLADES CITY,FL
34140,12021,Collier County,GOODLAND,FL
34141,12021,Collier County,OCHOPEE,FL
34142,12051,Hendry County,IMMOKALEE,FL
34142,12021,Collier County,IMMOKALEE,FL
34145,12021,Collier County,MARCO ISLAND,FL
34146,12021,Collier County,MARCO ISLAND,FL
34201,12081,Manatee County,BRADENTON,FL
34202,12081,Manatee County,BRADENTON,FL
34203,12081,Manatee County,BRADENTON,FL
34204,12081,Manatee County,BRADENTON,FL
34205,12081,Manatee County,BRADENTON,FL
34206,12081,Manatee County,BRADENTON,FL
34207,12081,Manatee County,BRADENTON,FL
34208,12081,Manatee County,BRADENTON,FL
34209,12081,Manatee County,BRADENTON,FL
34210,12081,Manatee County,BRADENTON,FL
34211,12081,Manatee County,BRADENTON,FL
34212,12081,Manatee County,BRADENTON,FL
34215,12081,Manatee County,CORTEZ,FL
34216,12081,Manatee County,ANNA MARIA,FL
34217,12081,Manatee County,BRADENTON BEACH,FL
34219,12081,Manatee County,PARRISH,FL
34220,12081,Manatee County,PALMETTO,FL
34221,12081,Manatee County,PALMETTO,FL
34222,12081,Manatee County,ELLENTON,FL
34223,12115,Sarasota County,ENGLEWOOD,FL
34223,12015,Charlotte County,ENGLEWOOD,FL
34224,12115,Sarasota County,ENGLEWOOD,FL
34224,12015,Charlotte County,ENGLEWOOD,FL
34228,12081,Manatee County,LONGBOAT KEY,FL
34228,12115,Sarasota County,LONGBOAT KEY,FL
34229,12115,Sarasota County,OSPREY,FL
34230,12115,Sarasota County,SARASOTA,FL
34231,12115,Sarasota County,SARASOTA,FL
34232,12115,Sarasota County,SARASOTA,FL
34233,12115,Sarasota County,SARASOTA,FL
34234,12115,Sarasota County,SARASOTA,FL
34235,12115,Sarasota County,SARASOTA,FL
34236,12115,Sarasota County,SARASOTA,FL
34237,12115,Sarasota County,SARASOTA,FL
34238,12115,Sarasota County,SARASOTA,FL
34239,12115,Sarasota County,SARASOTA,FL
34240,12081,Manatee County,SARASOTA,FL
34240,12115,Sarasota County,SARASOTA,FL
34241,12115,Sarasota County,SARASOTA,FL
34242,12115,Sarasota County,SARASOTA,FL
34243,12081,Manatee County,SARASOTA,FL
34243,12115,Sarasota County,SARASOTA,FL
34249,12115,Sarasota County,SARASOTA,FL
34250,12081,Manatee County,TERRA CEIA,FL
34251,12115,Sarasota County,MYAKKA CITY,FL
34251,12081,Manatee County,MYAKKA CITY,FL
34260,12081,Manatee County,SARASOTA,FL
34264,12081,Manatee County,ONECO,FL
34266,12115,Sarasota County,ARCADIA,FL
34266,12027,DeSoto County,ARCADIA,FL
34266,12081,Manatee County,ARCADIA,FL
34266,12055,Highlands County,ARCADIA,FL
34266,12015,Charlotte County,ARCADIA,FL
34267,12027,DeSoto County,FORT OGDEN,FL
34268,12027,DeSoto County,NOCATEE,FL
34269,12027,DeSoto County,ARCADIA,FL
34269,12015,Charlotte County,ARCADIA,FL
34270,12081,Manatee County,TALLEVAST,FL
34272,12115,Sarasota County,LAUREL,FL
34274,12115,Sarasota County,NOKOMIS,FL
34275,12115,Sarasota County,NOKOMIS,FL
34276,12115,Sarasota County,SARASOTA,FL
34277,12115,Sarasota County,SARASOTA,FL
34280,12081,Manatee County,BRADENTON,FL
34282,12081,Manatee County,BRADENTON,FL
34284,12115,Sarasota County,VENICE,FL
34285,12115,Sarasota County,VENICE,FL
34286,12115,Sarasota County,NORTH PORT,FL
34287,12015,Charlotte County,NORTH PORT,FL
34287,12115,Sarasota County,NORTH PORT,FL
34288,12115,Sarasota County,NORTH PORT,FL
34289,12115,Sarasota County,NORTH PORT,FL
34290,12115,Sarasota County,NORTH PORT,FL
34291,12115,Sarasota County,NORTH PORT,FL
34292,12115,Sarasota County,VENICE,FL
34293,12115,Sarasota County,VENICE,FL
34295,12115,Sarasota County,ENGLEWOOD,FL
34420,12083,Marion County,BELLEVIEW,FL
34421,12083,Marion County,BELLEVIEW,FL
34423,12017,Citrus County,CRYSTAL RIVER,FL
34428,12017,Citrus County,CRYSTAL RIVER,FL
34429,12017,Citrus County,CRYSTAL RIVER,FL
34430,12083,Marion County,DUNNELLON,FL
34431,12075,Levy County,DUNNELLON,FL
34431,12083,Marion County,DUNNELLON,FL
34432,12083,Marion County,DUNNELLON,FL
34433,12017,Citrus County,DUNNELLON,FL
34434,12017,Citrus County,DUNNELLON,FL
34436,12017,Citrus County,FLORAL CITY,FL
34441,12017,Citrus County,HERNANDO,FL
34442,12017,Citrus County,HERNANDO,FL
34445,12017,Citrus County,HOLDER,FL
34446,12017,Citrus County,HOMOSASSA,FL
34446,12053,Hernando County,HOMOSASSA,FL
34447,12017,Citrus County,HOMOSASSA SPRINGS,FL
34448,12017,Citrus County,HOMOSASSA,FL
34449,12075,Levy County,INGLIS,FL
34449,12017,Citrus County,INGLIS,FL
34450,12017,Citrus County,INVERNESS,FL
34451,12017,Citrus County,INVERNESS,FL
34452,12017,Citrus County,INVERNESS,FL
34453,12017,Citrus County,INVERNESS,FL
34460,12017,Citrus County,LECANTO,FL
34461,12017,Citrus County,LECANTO,FL
34464,12017,Citrus County,BEVERLY HILLS,FL
34465,12017,Citrus County,BEVERLY HILLS,FL
34470,12083,Marion County,OCALA,FL
34471,12083,Marion County,OCALA,FL
34472,12083,Marion County,OCALA,FL
34473,12083,Marion County,OCALA,FL
34474,12083,Marion County,OCALA,FL
34475,12083,Marion County,OCALA,FL
34476,12083,Marion County,OCALA,FL
34477,12083,Marion County,OCALA,FL
34478,12083,Marion County,OCALA,FL
34479,12083,Marion County,OCALA,FL
34480,12083,Marion County,OCALA,FL
34481,12083,Marion County,OCALA,FL
34482,12083,Marion County,OCALA,FL
34483,12083,Marion County,OCALA,FL
34484,12119,Sumter County,OXFORD,FL
34484,12083,Marion County,OXFORD,FL
34487,12017,Citrus County,HOMOSASSA,FL
34488,12083,Marion County,SILVER SPRINGS,FL
34489,12083,Marion County,SILVER SPRINGS,FL
34491,12083,Marion County,SUMMERFIELD,FL
34491,12119,Sumter County,SUMMERFIELD,FL
34492,12083,Marion County,SUMMERFIELD,FL
34498,12075,Levy County,YANKEETOWN,FL
34601,12053,Hernando County,BROOKSVILLE,FL
34601,12017,Citrus County,BROOKSVILLE,FL
34602,12053,Hernando County,BROOKSVILLE,FL
34603,12053,Hernando County,BROOKSVILLE,FL
34604,12101,Pasco County,BROOKSVILLE,FL
34604,12053,Hernando County,BROOKSVILLE,FL
34605,12053,Hernando County,BROOKSVILLE,FL
34606,12053,Hernando County,SPRING HILL,FL
34607,12053,Hernando County,SPRING HILL,FL
34608,12053,Hernando County,SPRING HILL,FL
34609,12101,Pasco County,SPRING HILL,FL
34609,12053,Hernando County,SPRING HILL,FL
34610,12101,Pasco County,SPRING HILL,FL
34610,12053,Hernando County,SPRING HILL,FL
34611,12053,Hernando County,SPRING HILL,FL
34613,12053,Hernando County,BROOKSVILLE,FL
34614,12053,Hernando County,BROOKSVILLE,FL
34636,12053,Hernando County,ISTACHATTA,FL
34637,12101,Pasco County,LAND O LAKES,FL
34638,12101,Pasco County,LAND O LAKES,FL
34639,12101,Pasco County,LAND O LAKES,FL
34652,12101,Pasco County,NEW PORT RICHEY,FL
34653,12101,Pasco County,NEW PORT RICHEY,FL
34654,12101,Pasco County,NEW PORT RICHEY,FL
34655,12101,Pasco County,NEW PORT RICHEY,FL
34656,12101,Pasco County,NEW PORT RICHEY,FL
34660,12103,Pinellas County,OZONA,FL
34661,12053,Hernando County,NOBLETON,FL
34667,12101,Pasco County,HUDSON,FL
34668,12101,Pasco County,PORT RICHEY,FL
34669,12101,Pasco County,HUDSON,FL
34673,12101,Pasco County,PORT RICHEY,FL
34674,12101,Pasco County,HUDSON,FL
34677,12103,Pinellas County,OLDSMAR,FL
34679,12101,Pasco County,ARIPEKA,FL
34680,12101,Pasco County,ELFERS,FL
34681,12103,Pinellas County,CRYSTAL BEACH,FL
34682,12103,Pinellas County,PALM HARBOR,FL
34683,12103,Pinellas County,PALM HARBOR,FL
34684,12103,Pinellas County,PALM HARBOR,FL
34685,12103,Pinellas County,PALM HARBOR,FL
34688,12103,Pinellas County,TARPON SPRINGS,FL
34689,12101,Pasco County,TARPON SPRINGS,FL
34689,12103,Pinellas County,TARPON SPRINGS,FL
34690,12101,Pasco County,HOLIDAY,FL
34691,12101,Pasco County,HOLIDAY,FL
34692,12101,Pasco County,HOLIDAY,FL
34695,12103,Pinellas County,SAFETY HARBOR,FL
34697,12103,Pinellas County,DUNEDIN,FL
34698,12103,Pinellas County,DUNEDIN,FL
34705,12069,Lake County,ASTATULA,FL
34711,12069,Lake County,CLERMONT,FL
34712,12069,Lake County,CLERMONT,FL
34713,12069,Lake County,CLERMONT,FL
34714,12097,Osceola County,CLERMONT,FL
34714,12069,Lake County,CLERMONT,FL
34714,12105,Polk County,CLERMONT,FL
34715,12069,Lake County,CLERMONT,FL
34729,12069,Lake County,FERNDALE,FL
34731,12119,Sumter County,FRUITLAND PARK,FL
34731,12069,Lake County,FRUITLAND PARK,FL
34734,12095,Orange County,GOTHA,FL
34736,12069,Lake County,GROVELAND,FL
34736,12119,Sumter County,GROVELAND,FL
34737,12069,Lake County,HOWEY IN THE HILLS,FL
34739,12097,Osceola County,KENANSVILLE,FL
34740,12095,Orange County,KILLARNEY,FL
34741,12097,Osceola County,KISSIMMEE,FL
34742,12097,Osceola County,KISSIMMEE,FL
34743,12097,Osceola County,KISSIMMEE,FL
34744,12097,Osceola County,KISSIMMEE,FL
34745,12097,Osceola County,KISSIMMEE,FL
34746,12097,Osceola County,KISSIMMEE,FL
34747,12095,Orange County,KISSIMMEE,FL
34747,12097,Osceola County,KISSIMMEE,FL
34748,12069,Lake County,LEESBURG,FL
34749,12069,Lake County,LEESBURG,FL
34753,12069,Lake County,MASCOTTE,FL
34755,12069,Lake County,MINNEOLA,FL
34756,12069,Lake County,MONTVERDE,FL
34758,12097,Osceola County,KISSIMMEE,FL
34759,12105,Polk County,KISSIMMEE,FL
34759,12097,Osceola County,KISSIMMEE,FL
34760,12095,Orange County,OAKLAND,FL
34761,12095,Orange County,OCOEE,FL
34762,12069,Lake County,THE VILLAGES,FL
34762,12119,Sumter County,THE VILLAGES,FL
34769,12097,Osceola County,SAINT CLOUD,FL
34770,12097,Osceola County,SAINT CLOUD,FL
34771,12097,Osceola County,SAINT CLOUD,FL
34772,12097,Osceola County,SAINT CLOUD,FL
34773,12097,Osceola County,SAINT CLOUD,FL
34777,12095,Orange County,WINTER GARDEN,FL
34778,12095,Orange County,WINTER GARDEN,FL
34785,12119,Sumter County,WILDWOOD,FL
34786,12095,Orange County,WINDERMERE,FL
34787,12069,Lake County,WINTER GARDEN,FL
34787,12095,Orange County,WINTER GARDEN,FL
34788,12069,Lake County,LEESBURG,FL
34789,12069,Lake County,LEESBURG,FL
34797,12069,Lake County,YALAHA,FL
34945,12111,St. Lucie County,FORT PIERCE,FL
34946,12111,St. Lucie County,FORT PIERCE,FL
34947,12111,St. Lucie County,FORT PIERCE,FL
34948,12111,St. Lucie County,FORT PIERCE,FL
34949,12111,St. Lucie County,FORT PIERCE,FL
34950,12111,St. Lucie County,FORT PIERCE,FL
34951,12061,Indian River County,FORT PIERCE,FL
34951,12111,St. Lucie County,FORT PIERCE,FL
34952,12111,St. Lucie County,PORT SAINT LUCIE,FL
34953,12111,St. Lucie County,PORT SAINT LUCIE,FL
34954,12111,St. Lucie County,FORT PIERCE,FL
34956,12085,Martin County,INDIANTOWN,FL
34957,12085,Martin County,JENSEN BEACH,FL
34957,12111,St. Lucie County,JENSEN BEACH,FL
34958,12085,Martin County,JENSEN BEACH,FL
34972,12111,St. Lucie County,OKEECHOBEE,FL
34972,12097,Osceola County,OKEECHOBEE,FL
34972,12093,Okeechobee County,OKEECHOBEE,FL
34973,12093,Okeechobee County,OKEECHOBEE,FL
34974,12085,Martin County,OKEECHOBEE,FL
34974,12093,Okeechobee County,OKEECHOBEE,FL
34974,12043,Glades County,OKEECHOBEE,FL
34974,12111,St. Lucie County,OKEECHOBEE,FL
34974,12055,Highlands County,OKEECHOBEE,FL
34979,12111,St. Lucie County,FORT PIERCE,FL
34981,12111,St. Lucie County,FORT PIERCE,FL
34982,12111,St. Lucie County,FORT PIERCE,FL
34983,12111,St. Lucie County,PORT SAINT LUCIE,FL
34984,12111,St. Lucie County,PORT SAINT LUCIE,FL
34985,12111,St. Lucie County,PORT SAINT LUCIE,FL
34986,12111,St. Lucie County,PORT SAINT LUCIE,FL
34987,12111,St. Lucie County,PORT SAINT LUCIE,FL
34988,12111,St. Lucie County,PORT SAINT LUCIE,FL
34990,12085,Martin County,PALM CITY,FL
34990,12111,St. Lucie County,PALM CITY,FL
34991,12085,Martin County,PALM CITY,FL
34992,12085,Martin County,PORT SALERNO,FL
34994,12085,Martin County,STUART,FL
34995,12085,Martin County,STUART,FL
34996,12085,Martin County,STUART,FL
34997,12085,Martin County,STUART,FL
